{
  "type": "FeatureCollection",
  "features": [
    {
      "type": "Feature",
      "properties": {
        "id": "P01",
        "status": "available"
      },
      "geometry": {
        "type": "Polygon",
        "coordinates": [
          [
            [
              37.02,
              -0.12
            ],
            [
              37.021800000000006,
              -0.12
            ],
            [
              37.021800000000006,
              -0.1182
            ],
            [
              37.02,
              -0.1182
            ],
            [
              37.02,
              -0.12
            ]
          ]
        ]
      }
    },
    {
      "type": "Feature",
      "properties": {
        "id": "P02",
        "status": "available"
      },
      "geometry": {
        "type": "Polygon",
        "coordinates": [
          [
            [
              37.021800000000006,
              -0.12
            ],
            [
              37.02360000000001,
              -0.12
            ],
            [
              37.02360000000001,
              -0.1182
            ],
            [
              37.021800000000006,
              -0.1182
            ],
            [
              37.021800000000006,
              -0.12
            ]
          ]
        ]
      }
    },
    {
      "type": "Feature",
      "properties": {
        "id": "P03",
        "status": "sold"
      },
      "geometry": {
        "type": "Polygon",
        "coordinates": [
          [
            [
              37.0236,
              -0.12
            ],
            [
              37.025400000000005,
              -0.12
            ],
            [
              37.025400000000005,
              -0.1182
            ],
            [
              37.0236,
              -0.1182
            ],
            [
              37.0236,
              -0.12
            ]
          ]
        ]
      }
    },
    {
      "type": "Feature",
      "properties": {
        "id": "P04",
        "status": "available"
      },
      "geometry": {
        "type": "Polygon",
        "coordinates": [
          [
            [
              37.02,
              -0.1182
            ],
            [
              37.021800000000006,
              -0.1182
            ],
            [
              37.021800000000006,
              -0.1164
            ],
            [
              37.02,
              -0.1164
            ],
            [
              37.02,
              -0.1182
            ]
          ]
        ]
      }
    },
    {
      "type": "Feature",
      "properties": {
        "id": "P05",
        "status": "sold"
      },
      "geometry": {
        "type": "Polygon",
        "coordinates": [
          [
            [
              37.021800000000006,
              -0.1182
            ],
            [
              37.02360000000001,
              -0.1182
            ],
            [
              37.02360000000001,
              -0.1164
            ],
            [
              37.021800000000006,
              -0.1164
            ],
            [
              37.021800000000006,
              -0.1182
            ]
          ]
        ]
      }
    },
    {
      "type": "Feature",
      "properties": {
        "id": "P06",
        "status": "available"
      },
      "geometry": {
        "type": "Polygon",
        "coordinates": [
          [
            [
              37.0236,
              -0.1182
            ],
            [
              37.025400000000005,
              -0.1182
            ],
            [
              37.025400000000005,
              -0.1164
            ],
            [
              37.0236,
              -0.1164
            ],
            [
              37.0236,
              -0.1182
            ]
          ]
        ]
      }
    },
    {
      "type": "Feature",
      "properties": {
        "id": "P07",
        "status": "available"
      },
      "geometry": {
        "type": "Polygon",
        "coordinates": [
          [
            [
              37.02,
              -0.11639999999999999
            ],
            [
              37.021800000000006,
              -0.11639999999999999
            ],
            [
              37.021800000000006,
              -0.1146
            ],
            [
              37.02,
              -0.1146
            ],
            [
              37.02,
              -0.11639999999999999
            ]
          ]
        ]
      }
    },
    {
      "type": "Feature",
      "properties": {
        "id": "P08",
        "status": "available"
      },
      "geometry": {
        "type": "Polygon",
        "coordinates": [
          [
            [
              37.021800000000006,
              -0.11639999999999999
            ],
            [
              37.02360000000001,
              -0.11639999999999999
            ],
            [
              37.02360000000001,
              -0.1146
            ],
            [
              37.021800000000006,
              -0.1146
            ],
            [
              37.021800000000006,
              -0.11639999999999999
            ]
          ]
        ]
      }
    },
    {
      "type": "Feature",
      "properties": {
        "id": "P09",
        "status": "sold"
      },
      "geometry": {
        "type": "Polygon",
        "coordinates": [
          [
            [
              37.0236,
              -0.11639999999999999
            ],
            [
              37.025400000000005,
              -0.11639999999999999
            ],
            [
              37.025400000000005,
              -0.1146
            ],
            [
              37.0236,
              -0.1146
            ],
            [
              37.0236,
              -0.11639999999999999
            ]
          ]
        ]
      }
    },
    {
      "type": "Feature",
      "properties": {
        "id": "P10",
        "status": "available"
      },
      "geometry": {
        "type": "Polygon",
        "coordinates": [
          [
            [
              37.02,
              -0.1146
            ],
            [
              37.021800000000006,
              -0.1146
            ],
            [
              37.021800000000006,
              -0.1128
            ],
            [
              37.02,
              -0.1128
            ],
            [
              37.02,
              -0.1146
            ]
          ]
        ]
      }
    },
    {
      "type": "Feature",
      "properties": {
        "id": "P11",
        "status": "available"
      },
      "geometry": {
        "type": "Polygon",
        "coordinates": [
          [
            [
              37.021800000000006,
              -0.1146
            ],
            [
              37.02360000000001,
              -0.1146
            ],
            [
              37.02360000000001,
              -0.1128
            ],
            [
              37.021800000000006,
              -0.1128
            ],
            [
              37.021800000000006,
              -0.1146
            ]
          ]
        ]
      }
    },
    {
      "type": "Feature",
      "properties": {
        "id": "P12",
        "status": "available"
      },
      "geometry": {
        "type": "Polygon",
        "coordinates": [
          [
            [
              37.0236,
              -0.1146
            ],
            [
              37.025400000000005,
              -0.1146
            ],
            [
              37.025400000000005,
              -0.1128
            ],
            [
              37.0236,
              -0.1128
            ],
            [
              37.0236,
              -0.1146
            ]
          ]
        ]
      }
    }
  ]
}
